      2.10          N: GNSS NAV DATA                        RINEX VERSION / TYPE
fic2rin                                 03/04/2022 00:17:27 PGM / RUN BY / DATE
                                                            END OF HEADER
12 22  3  3  8  0  0.0-1.791846007109e-04-5.684341886081e-12 0.000000000000e+00
    4.500000000000e+01-3.415625000000e+01 4.711624829515e-09-1.840482454202e+00
   -1.702457666397e-06 8.725401246920e-03 3.999099135399e-06 5.153583059311e+03
    3.744000000000e+05 2.086162567139e-07 2.085500543892e+00 3.352761268616e-08
    9.697996280472e-01 3.057812500000e+02 1.252726413403e+00-8.204984627687e-09
   -2.903692379014e-10 1.000000000000e+00 2.199000000000e+03 0.000000000000e+00
    2.400000000000e+00 0.000000000000e+00-1.257285475731e-08 4.500000000000e+01
    3.672000000000e+05 4.000000000000e+00
10 22  3  3  8  0  0.0-3.358055837452e-04-1.102762325900e-11 0.000000000000e+00
    6.100000000000e+01-4.546875000000e+01 4.760555439100e-09-2.564090909273e+00
   -2.421438694000e-06 7.539806887507e-03 2.201646566391e-06 5.153678518295e+03
    3.744000000000e+05 1.005828380585e-07-1.130271402901e+00-2.048909664154e-07
    9.723001163854e-01 3.437187500000e+02-2.505342631040e+00-8.412136113520e-09
   -1.500062483624e-10 1.000000000000e+00 2.199000000000e+03 0.000000000000e+00
    2.400000000000e+00 0.000000000000e+00 2.328306436539e-09 6.100000000000e+01
    3.672000000000e+05 4.000000000000e+00
21 22  3  3  8  0  0.0 1.588747836649e-04 5.684341886081e-13 0.000000000000e+00
    2.500000000000e+01 1.215625000000e+02 4.477686513616e-09 1.837522299448e+00
    6.189569830894e-06 2.458027726971e-02 7.668510079384e-06 5.153577539444e+03
    3.744000000000e+05 4.097819328308e-07-2.254157417082e+00 1.359730958939e-07
    9.595861864792e-01 2.242812500000e+02-9.935051051669e-01-7.861398887390e-09
    3.017982853957e-10 1.000000000000e+00 2.199000000000e+03 0.000000000000e+00
    2.400000000000e+00 0.000000000000e+00-1.024454832077e-08 2.500000000000e+01
    3.672000000000e+05 4.000000000000e+00
26 22  3  3  8  0  0.0 1.877392642200e-04 3.069544618484e-12 0.000000000000e+00
    2.500000000000e+01-2.675000000000e+01 5.443441026883e-09-2.761684288904e+00
   -1.380220055580e-06 6.908969604410e-03 3.460794687271e-06 5.153702615738e+03
    3.744000000000e+05-5.029141902924e-08 1.961224887952e+00-8.568167686462e-08
    9.380369511299e-01 3.026562500000e+02 3.780513101431e-01-8.643931483014e-09
   -1.742929742877e-10 1.000000000000e+00 2.199000000000e+03 0.000000000000e+00
    2.400000000000e+00 0.000000000000e+00 6.984919309616e-09 2.500000000000e+01
    3.672000000000e+05 4.000000000000e+00
29 22  3  3  8  0  0.0-4.868251271546e-04-4.547473508865e-12 0.000000000000e+00
    8.600000000000e+01-1.665625000000e+01 3.702297072677e-09 1.826596027639e+00
   -8.009374141693e-07 1.876001129858e-03 1.298822462559e-05 5.153747341156e+03
    3.744000000000e+05 1.117587089539e-08 3.135882901881e+00 7.823109626770e-08
    9.820352378695e-01 1.410000000000e+02 2.244606984616e+00-7.549243027703e-09
   -2.385813664430e-10 1.000000000000e+00 2.199000000000e+03 0.000000000000e+00
    2.400000000000e+00 0.000000000000e+00-1.024454832077e-08 8.600000000000e+01
    3.672000000000e+05 4.000000000000e+00
15 22  3  3  8  0  0.0-7.968535646796e-05 2.955857780762e-12 0.000000000000e+00
    9.200000000000e+01-1.023750000000e+02 5.268076579392e-09 7.357727183785e-01
   -5.058944225311e-06 1.394109765533e-02 1.036562025547e-05 5.153752115250e+03
    3.744000000000e+05-1.806765794754e-07-2.056347389523e-01 3.352761268616e-08
    9.304696284691e-01 1.692187500000e+02 1.078477946935e+00-8.608572867328e-09
   -4.750197864808e-10 1.000000000000e+00 2.199000000000e+03 0.000000000000e+00
    2.400000000000e+00 0.000000000000e+00-1.071020960808e-08 9.200000000000e+01
    3.672000000000e+05 4.000000000000e+00
 9 22  3  3  8  0  0.0-3.516855649650e-04 1.818989403546e-12 0.000000000000e+00
    7.400000000000e+01-9.131250000000e+01 4.433756112310e-09 2.103539006992e+00
   -4.731118679047e-06 2.210817532614e-03 1.204572618008e-05 5.153621536255e+03
    3.744000000000e+05 4.097819328308e-08-9.922106406415e-02-4.284083843231e-08
    9.546602604260e-01 1.379687500000e+02 1.879854479027e+00-8.007119242942e-09
   -3.428714248282e-10 1.000000000000e+00 2.199000000000e+03 0.000000000000e+00
    2.400000000000e+00 0.000000000000e+00 1.396983861923e-09 7.400000000000e+01
    3.672000000000e+05 4.000000000000e+00
 7 22  3  3  8  0  0.0 3.138836473227e-04 2.273736754432e-12 0.000000000000e+00
    4.100000000000e+01 6.881250000000e+01 4.796271212519e-09-1.195025637180e+00
    3.568828105927e-06 1.562210288830e-02 8.950009942055e-06 5.153685319901e+03
    3.744000000000e+05 4.339963197708e-07 9.722461522633e-01 1.955777406693e-07
    9.509488401848e-01 1.999062500000e+02-2.288484248532e+00-8.207127574092e-09
    4.850202030383e-10 1.000000000000e+00 2.199000000000e+03 0.000000000000e+00
    2.400000000000e+00 0.000000000000e+00-1.117587089539e-08 4.100000000000e+01
    3.672000000000e+05 4.000000000000e+00
31 22  3  3  8  0  0.0-1.672171056271e-04-1.705302565824e-12 0.000000000000e+00
    8.800000000000e+01 7.153125000000e+01 4.693052627337e-09-1.648906207311e+00
    3.607943654060e-06 1.043923385441e-02 8.491799235344e-06 5.153696348190e+03
    3.744000000000e+05 3.725290298462e-09 9.903997704230e-01-1.434236764908e-07
    9.551544107465e-01 2.137187500000e+02 3.790462378030e-01-8.099623096099e-09
    6.025250975888e-10 1.000000000000e+00 2.199000000000e+03 0.000000000000e+00
    2.400000000000e+00 0.000000000000e+00-1.350417733192e-08 8.800000000000e+01
    3.672000000000e+05 4.000000000000e+00
19 22  3  3  8  0  0.0 1.260624267161e-04 5.002220859751e-12 0.000000000000e+00
    6.800000000000e+01 3.250000000000e+00 3.725155167665e-09-2.229415686329e+00
    4.451721906662e-07 8.996893884614e-03 1.382082700729e-05 5.153691421509e+03
    3.744000000000e+05 1.490116119385e-08-3.115502248420e+00 1.266598701477e-07
    9.787882180466e-01 1.162187500000e+02 2.014687795308e+00-7.502812522257e-09
   -2.285809498855e-10 1.000000000000e+00 2.199000000000e+03 0.000000000000e+00
    2.400000000000e+00 0.000000000000e+00-1.583248376846e-08 6.800000000000e+01
    3.672000000000e+05 4.000000000000e+00
20 22  3  3  8  0  0.0 5.164658650756e-04-1.136868377216e-13 0.000000000000e+00
    5.900000000000e+01-3.906250000000e+00 5.647020935374e-09 4.730439850493e-01
   -1.993030309677e-07 5.103783449158e-03 1.322478055954e-06 5.153753932953e+03
    3.744000000000e+05 3.911554813385e-08-1.282489886954e+00 4.097819328308e-08
    9.416477752724e-01 3.449687500000e+02-3.137761879714e+00-8.954658711764e-09
   -1.535778257043e-11 1.000000000000e+00 2.199000000000e+03 0.000000000000e+00
    2.400000000000e+00 0.000000000000e+00-8.381903171539e-09 5.900000000000e+01
    3.672000000000e+05 4.000000000000e+00
24 22  3  3  8  0  0.0 2.711233682930e-04-2.728484105319e-12 0.000000000000e+00
    5.700000000000e+01 5.506250000000e+01 5.247004273075e-09-2.288506198155e-01
    2.980232238770e-06 1.235034840647e-02 9.544193744659e-06 5.153695932388e+03
    3.744000000000e+05 2.607703208923e-08 8.892177934103e-01 1.378357410431e-07
    9.345062700286e-01 1.800312500000e+02 8.099082337574e-01-8.598215293037e-09
    4.489472718845e-10 1.000000000000e+00 2.199000000000e+03 0.000000000000e+00
    2.400000000000e+00 0.000000000000e+00 2.328306436539e-09 5.700000000000e+01
    3.672000000000e+05 4.000000000000e+00
13 22  3  3  8  0  0.0 2.705929800868e-04 6.252776074689e-12 0.000000000000e+00
    3.800000000000e+01-7.934375000000e+01 4.111242678331e-09 1.178465938488e+00
   -3.961846232414e-06 5.807852488942e-03 1.301243901253e-05 5.153685688019e+03
    3.744000000000e+05-8.568167686462e-08 5.380146024677e-02 4.842877388000e-08
    9.691352233206e-01 1.345937500000e+02 9.521115586967e-01-7.879256774100e-09
   -1.985797002130e-10 1.000000000000e+00 2.199000000000e+03 0.000000000000e+00
    2.400000000000e+00 0.000000000000e+00-1.117587089539e-08 3.800000000000e+01
    3.672000000000e+05 4.000000000000e+00
22 22  3  3  8  0  0.0 2.217604778707e-04 5.798028723802e-12 0.000000000000e+00
    8.100000000000e+01-7.365625000000e+01 4.227676099679e-09 1.526657215172e+00
   -4.014000296593e-06 1.299948350061e-02 1.261755824089e-05 5.153673351288e+03
    3.744000000000e+05-2.253800630569e-07 2.137292592530e-03-2.514570951462e-07
    9.618302033344e-01 1.422500000000e+02-1.870283972400e+00-7.931758961027e-09
   -2.025084352892e-10 1.000000000000e+00 2.199000000000e+03 0.000000000000e+00
    3.400000000000e+00 0.000000000000e+00-9.778887033463e-09 8.100000000000e+01
    3.672000000000e+05 4.000000000000e+00
27 22  3  3  8  0  0.0 1.406660303473e-04 1.409716787748e-11 0.000000000000e+00
    5.400000000000e+01-1.200000000000e+01 3.942664227791e-09 1.695333243812e+00
   -6.295740604401e-07 1.032659132034e-02 1.284107565880e-05 5.153656648636e+03
    3.744000000000e+05-1.545995473862e-07 3.060306851070e+00 9.872019290924e-08
    9.735569488061e-01 1.394687500000e+02 6.443170780268e-01-7.784609974538e-09
   -3.828730910582e-10 1.000000000000e+00 2.199000000000e+03 0.000000000000e+00
    2.400000000000e+00 0.000000000000e+00 1.396983861923e-09 5.400000000000e+01
    3.672000000000e+05 4.000000000000e+00
17 22  3  3  8  0  0.0 5.822875536978e-04 5.115907697473e-12 0.000000000000e+00
    9.400000000000e+01-1.518750000000e+01 3.720869274855e-09 1.636457413751e+00
   -7.860362529755e-07 1.355766714551e-02 1.362524926662e-05 5.153770067215e+03
    3.744000000000e+05 1.471489667892e-07 3.122842991403e+00-3.725290298462e-07
    9.800111341746e-01 1.229062500000e+02-1.495319731006e+00-7.551385974108e-09
   -2.614394614315e-10 1.000000000000e+00 2.199000000000e+03 0.000000000000e+00
    3.400000000000e+00 0.000000000000e+00-1.117587089539e-08 9.400000000000e+01
    3.672000000000e+05 4.000000000000e+00
